STARLINK-3274           
1 50186U 21125AG  26068.81957075 -.00000529  00000+0 -15154-4 0  9992
2 50186  53.2159 258.5414 0001207  87.4837 272.6293 15.08836755236474
LEMUR-2-SIERRINI        
1 60579U 24149DR  26068.80891719  .00014386  00000+0  92040-3 0  9991
2 60579  97.6873 151.1225 0006580 147.8458 212.3173 15.08682764 85461
